DELTA 2 R/B             
1 25876U 99041E   19217.89802075 -.00000110  00000-0  22835-4 0  9997
2 25876  51.7641 119.8983 0531417 140.9792 223.0758 14.04337592 24142
HELIOS 1B               
1 25977U 99064A   19217.93247616  .00000020  00000-0  94876-5 0  9997
2 25977  98.2383 357.6182 0000286  26.3706 333.7520 14.82428440328224
TERRA                   
1 25994U 99068A   19218.42794425  .00000029  00000-0  16409-4 0  9994
2 25994  98.2029 292.2364 0000860  93.5022 266.6274 14.57114900 44298
SL-16 R/B               
1 26070U 00006B   19217.92109425 -.00000027  00000-0  10830-4 0  9999
2 26070  71.0026 118.4067 0018616 248.6930 111.2206 14.15455269  7848
TITAN 4B R/B            
1 26474U 00047B   19218.19045918  .00000048  00000-0  15150-4 0  9990
2 26474  67.9921 226.1505 0056768 190.5023 169.4939 14.95845703 32026
ENVISAT                 
1 27386U 02009A   19218.53690141 -.00000009  00000-0  10612-4 0  9991
2 27386  98.1477 237.0615 0001430  91.3512  74.8823 14.37954084913210
IDEFIX & ARIANE 42P R/B 
1 27422U 02021B   19217.96080202 -.00000025  00000-0  62780-5 0  9995
2 27422  98.3034 187.9698 0013557  86.7217 273.5516 14.29274386898062
AQUA                    
1 27424U 02022A   19218.53291969  .00000071  00000-0  25755-4 0  9996
2 27424  98.2045 158.6469 0000223 242.6662 206.2370 14.57115357917919
CZ-4B R/B               
1 27432U 02024C   19218.05476817 -.00000035  00000-0  59669-5 0  9994
2 27432  99.0716 210.1157 0050332 350.2521  53.1983 14.14082221889010
MIDORI II (ADEOS-II)    
1 27597U 02056A   19217.91275483  .00000010  00000-0  21553-4 0  9993
2 27597  98.4749 169.2311 0001210 130.9220 229.2066 14.27406415866659
H-2A R/B                
1 27601U 02056E   19217.71664826  .00000004  00000-0  16254-4 0  9995
2 27601  98.2716 264.0175 0073030 139.7738 330.3435 14.31902667869369
CZ-4B R/B               
1 28059U 03049C   19218.21879524 -.00000007  00000-0  10128-4 0  9993
2 28059  98.4906 126.1123 0050746  26.5388 333.8389 14.52568074836907
CZ-2C R/B               
1 28222U 04012C   19217.87940222  .00000248  00000-0  18938-4 0  9994
2 28222  97.6294 175.5912 0048363  35.4162  19.9708 15.10119667838213
SL-16 R/B               
1 28353U 04021B   19218.18049197  .00000310  00000-0  18717-3 0  9999
2 28353  70.9984 242.6394 0003118  99.4395 260.7079 14.14220249782436
CZ-4B R/B               
1 28415U 04035C   19218.20053692  .00000381  00000-0  29352-4 0  9997
2 28415  97.6577 257.4036 0051444 351.5065   8.5286 15.06711641816010
CZ-2C R/B               
1 28480U 04046B   19217.76990639 -.00000030  00000-0  34208-5 0  9991
2 28480  98.1264 271.4572 0143202  82.3267  28.1318 14.25704901765310
ARIANE 5 R/B            
1 28499U 04049H   19218.23475667  .00000038  00000-0  12190-4 0  9998
2 28499  98.0528 314.1320 0091478 214.6376 197.7019 14.79975338789361
CZ-2D R/B               
1 28738U 05024B   19218.16260595  .00000348  00000-0  23992-4 0  9998
2 28738  97.4121 245.7004 0011703 188.2605 171.8435 15.11843315773635
SUZAKU (ASTRO-EII)      
1 28773U 05025A   19218.52493711  .00000603  00000-0  25293-4 0  9996
2 28773  31.3820 270.2570 0004595 269.9100  90.1020 15.17131116775917
ALOS (DAICHI)           
1 28931U 06002A   19218.50238478  .00000115  00000-0  31129-4 0  9996
2 28931  97.8201 215.2283 0002017  43.3835 316.7528 14.62627081721516
H-2A R/B                
1 28932U 06002B   19217.92793517  .00000386  00000-0  41957-4 0  9992
2 28932  98.2843 185.8568 0087593 277.4147 144.1894 14.92012125733949
AKARI (ASTRO-F)         
1 28939U 06005A   19218.75793540  .00003226  00000-0  91022-4 0  9994
2 28939  98.1916 152.8890 0096742 348.7975  11.1110 15.32717732732534
RESURS-DK 1             
1 29228U 06021A   19217.51975132 -.00000004  00000-0  70898-5 0  9997
2 29228  69.9352 274.7755 0007297 244.1683 115.8726 15.02453489725149
GENESIS 1               
1 29252U 06029A   19217.65552793  .00000280  00000-0  23862-4 0  9994
2 29252  64.5113 257.5689 0044072 229.3292 130.3998 15.17788972720018
CZ-4B R/B               
1 29507U 06046C   19218.13788980  .00000989  00000-0  81590-4 0  9997
2 29507  97.7697 235.7611 0048828 146.6407 213.7910 15.00481039697986
CZ-2C R/B               
1 31114U 07010B   19217.56158282  .00000003  00000-0  19767-4 0  9992
2 31114  98.3041  85.9738 0060830 109.8233 250.9515 14.19296767638051
COSMO-SKYMED 1          
1 31598U 07023A   19218.46092723 -.00000289  00000-0 -29692-4 0  9995
2 31598  97.8908  41.1455 0001212  90.2626 269.8751 14.82150491658024
GENESIS 2               
1 31789U 07028A   19218.42011195  .00000376  00000-0  28930-4 0  9991
2 31789  64.5039 295.9616 0051730 280.9305  78.5999 15.16966781667228
COSMOS 2428             
1 31792U 07029A   19218.41475128 -.00000262  00000-0 -11585-3 0  9998
2 31792  70.9378 216.2660 0007073 194.8377 165.2537 14.12456527624241
SL-16 R/B               
1 31793U 07029B   19217.93990275 -.00000297  00000-0 -13016-3 0  9999
2 31793  70.9744 191.2355 0002310 279.6470 144.4472 14.14418226624936
KORONAS-FOTON           
1 33504U 09003A   19217.91188283  .00000519  00000-0  25694-4 0  9992
2 33504  82.4429 177.7379 0017676 296.6786  63.2636 15.15439538579447
H-2A R/B                
1 38341U 12025E   19217.94477870  .00000169  00000-0  27339-4 0  9999
2 38341  98.4570 348.3520 0055981 168.1509 192.1035 14.83909840390512
CUSAT 2 & FALCON 9 R/B  
1 39271U 13055G   19218.17617822  .00006768  00000-0  16425-3 0  9999
2 39271  80.9650 246.4536 0600295  39.4629 324.8714 14.45338738305000
SL-4 R/B                
1 39679U 14021B   19217.90415333 -.00000136  00000-0  11725-4 0  9991
2 39679  51.6172 136.1025 0172201 289.1841  69.0562 15.06129540291319
ALOS-2                  
1 39766U 14029A   19218.39516930 -.00000381  00000-0 -44186-4 0  9995
2 39766  97.9233 314.5240 0001299  84.6303 275.5064 14.79467685280961
SL-27 R/B               
1 40354U 14084B   19218.20619202  .00000507  00000-0  13847-4 0  9995
2 40354  74.7394 322.1085 0039218 309.8693  49.9071 15.39756556259855
ASTRO-H (HITOMI)        
1 41337U 16012A   19218.22391276  .00000214  00000-0  10421-4 0  9990
2 41337  31.0042 214.6587 0012457 186.6220 173.4251 14.98595172190023
SHENZHOU-11 MODULE      
1 41868U 16061G   19217.68541257  .00008311  00000-0  43227-4 0  9994
2 41868  42.7941 303.8308 0006980  27.8380  99.9910 15.81327094155707
HXMT (HUIYAN)           
1 42758U 17034A   19218.52901978 -.00000059  00000-0  10076-4 0  9996
2 42758  43.0191 328.8578 0010811 206.1063 216.2635 15.08625064118154
SAOCOM 1A               
1 43641U 18076A   19218.46913439 -.00000025  00000-0  34354-5 0  9992
2 43641  97.8883  44.1111 0001330  74.7983 285.3376 14.82158534 44799
